[
    {
        "OBJECT_NAME": "ARIANE 5 R/B",
        "OBJECT_ID": "2004-049H",
        "EPOCH": "2026-04-16T21:31:49.984320",
        "MEAN_MOTION": 14.85338781,
        "ECCENTRICITY": 0.00831695,
        "INCLINATION": 98.268,
        "RA_OF_ASC_NODE": 276.7993,
        "ARG_OF_PERICENTER": 226.6593,
        "MEAN_ANOMALY": 132.767,
        "EPHEMERIS_TYPE": 0,
        "CLASSIFICATION_TYPE": "U",
        "NORAD_CAT_ID": 28499,
        "ELEMENT_SET_NO": 999,
        "REV_AT_EPOCH": 15146,
        "BSTAR": 6.8186349e-05,
        "MEAN_MOTION_DOT": 5.58e-06,
        "MEAN_MOTION_DDOT": 0
    },
    {
        "OBJECT_NAME": "CZ-2D R/B",
        "OBJECT_ID": "2005-024B",
        "EPOCH": "2026-04-17T00:28:44.626944",
        "MEAN_MOTION": 15.63673819,
        "ECCENTRICITY": 0.00033595,
        "INCLINATION": 97.3544,
        "RA_OF_ASC_NODE": 123.6707,
        "ARG_OF_PERICENTER": 198.191,
        "MEAN_ANOMALY": 161.923,
        "EPHEMERIS_TYPE": 0,
        "CLASSIFICATION_TYPE": "U",
        "NORAD_CAT_ID": 28738,
        "ELEMENT_SET_NO": 999,
        "REV_AT_EPOCH": 14576,
        "BSTAR": 0.0003558651,
        "MEAN_MOTION_DOT": 0.00033086,
        "MEAN_MOTION_DDOT": 0
    },
    {
        "OBJECT_NAME": "ALOS (DAICHI)",
        "OBJECT_ID": "2006-002A",
        "EPOCH": "2026-04-17T07:19:24.003552",
        "MEAN_MOTION": 14.69922442,
        "ECCENTRICITY": 0.00016331,
        "INCLINATION": 98.1279,
        "RA_OF_ASC_NODE": 63.0863,
        "ARG_OF_PERICENTER": 111.742,
        "MEAN_ANOMALY": 248.3959,
        "EPHEMERIS_TYPE": 0,
        "CLASSIFICATION_TYPE": "U",
        "NORAD_CAT_ID": 28931,
        "ELEMENT_SET_NO": 999,
        "REV_AT_EPOCH": 7915,
        "BSTAR": 0.00012549355,
        "MEAN_MOTION_DOT": 7.02e-06,
        "MEAN_MOTION_DDOT": 0
    },
    {
        "OBJECT_NAME": "H-2A R/B",
        "OBJECT_ID": "2006-002B",
        "EPOCH": "2026-04-16T16:08:09.495168",
        "MEAN_MOTION": 15.17253084,
        "ECCENTRICITY": 0.00526567,
        "INCLINATION": 98.2484,
        "RA_OF_ASC_NODE": 257.0047,
        "ARG_OF_PERICENTER": 112.2484,
        "MEAN_ANOMALY": 248.4343,
        "EPHEMERIS_TYPE": 0,
        "CLASSIFICATION_TYPE": "U",
        "NORAD_CAT_ID": 28932,
        "ELEMENT_SET_NO": 999,
        "REV_AT_EPOCH": 10019,
        "BSTAR": 0.00026140958,
        "MEAN_MOTION_DOT": 5.309e-05,
        "MEAN_MOTION_DDOT": 0
    },
    {
        "OBJECT_NAME": "RESURS-DK 1",
        "OBJECT_ID": "2006-021A",
        "EPOCH": "2026-04-17T03:34:15.796416",
        "MEAN_MOTION": 15.12953661,
        "ECCENTRICITY": 0.00025582,
        "INCLINATION": 69.9296,
        "RA_OF_ASC_NODE": 137.5254,
        "ARG_OF_PERICENTER": 0.2044,
        "MEAN_ANOMALY": 359.9122,
        "EPHEMERIS_TYPE": 0,
        "CLASSIFICATION_TYPE": "U",
        "NORAD_CAT_ID": 29228,
        "ELEMENT_SET_NO": 999,
        "REV_AT_EPOCH": 9334,
        "BSTAR": 7.5731724e-05,
        "MEAN_MOTION_DOT": 1.23e-05,
        "MEAN_MOTION_DDOT": 0
    },
    {
        "OBJECT_NAME": "CZ-4B R/B",
        "OBJECT_ID": "2006-046C",
        "EPOCH": "2026-04-17T03:04:35.637600",
        "MEAN_MOTION": 15.1728428,
        "ECCENTRICITY": 0.00343176,
        "INCLINATION": 97.5518,
        "RA_OF_ASC_NODE": 151.9276,
        "ARG_OF_PERICENTER": 132.6543,
        "MEAN_ANOMALY": 227.7592,
        "EPHEMERIS_TYPE": 0,
        "CLASSIFICATION_TYPE": "U",
        "NORAD_CAT_ID": 29507,
        "ELEMENT_SET_NO": 999,
        "REV_AT_EPOCH": 6587,
        "BSTAR": 0.00015048841,
        "MEAN_MOTION_DOT": 2.972e-05,
        "MEAN_MOTION_DDOT": 0
    },
    {
        "OBJECT_NAME": "CZ-2C R/B",
        "OBJECT_ID": "2007-010B",
        "EPOCH": "2026-04-17T06:17:31.831872",
        "MEAN_MOTION": 14.2026018,
        "ECCENTRICITY": 0.00590616,
        "INCLINATION": 98.4023,
        "RA_OF_ASC_NODE": 218.6156,
        "ARG_OF_PERICENTER": 180.9294,
        "MEAN_ANOMALY": 179.1783,
        "EPHEMERIS_TYPE": 0,
        "CLASSIFICATION_TYPE": "U",
        "NORAD_CAT_ID": 31114,
        "ELEMENT_SET_NO": 999,
        "REV_AT_EPOCH": 98519,
        "BSTAR": 5.2616189e-05,
        "MEAN_MOTION_DOT": 7.4e-07,
        "MEAN_MOTION_DDOT": 0
    },
    {
        "OBJECT_NAME": "COSMO-SKYMED 1",
        "OBJECT_ID": "2007-023A",
        "EPOCH": "2026-04-17T07:22:15.867840",
        "MEAN_MOTION": 14.9680494,
        "ECCENTRICITY": 0.0001267,
        "INCLINATION": 97.8876,
        "RA_OF_ASC_NODE": 298.6573,
        "ARG_OF_PERICENTER": 86.3721,
        "MEAN_ANOMALY": 273.7645,
        "EPHEMERIS_TYPE": 0,
        "CLASSIFICATION_TYPE": "U",
        "NORAD_CAT_ID": 31598,
        "ELEMENT_SET_NO": 999,
        "REV_AT_EPOCH": 2068,
        "BSTAR": 0.00010900235,
        "MEAN_MOTION_DOT": 1.188e-05,
        "MEAN_MOTION_DDOT": 0
    },
    {
        "OBJECT_NAME": "COSMOS 2428",
        "OBJECT_ID": "2007-029A",
        "EPOCH": "2026-04-17T02:49:52.774752",
        "MEAN_MOTION": 14.12947752,
        "ECCENTRICITY": 0.00094506,
        "INCLINATION": 70.9397,
        "RA_OF_ASC_NODE": 122.6861,
        "ARG_OF_PERICENTER": 235.845,
        "MEAN_ANOMALY": 124.1776,
        "EPHEMERIS_TYPE": 0,
        "CLASSIFICATION_TYPE": "U",
        "NORAD_CAT_ID": 31792,
        "ELEMENT_SET_NO": 999,
        "REV_AT_EPOCH": 96952,
        "BSTAR": -5.3030951e-05,
        "MEAN_MOTION_DOT": -1.47e-06,
        "MEAN_MOTION_DDOT": 0
    },
    {
        "OBJECT_NAME": "SL-16 R/B",
        "OBJECT_ID": "2007-029B",
        "EPOCH": "2026-04-17T04:03:45.881856",
        "MEAN_MOTION": 14.14841295,
        "ECCENTRICITY": 0.00026883,
        "INCLINATION": 70.973,
        "RA_OF_ASC_NODE": 91.4957,
        "ARG_OF_PERICENTER": 271.1064,
        "MEAN_ANOMALY": 166.3268,
        "EPHEMERIS_TYPE": 0,
        "CLASSIFICATION_TYPE": "U",
        "NORAD_CAT_ID": 31793,
        "ELEMENT_SET_NO": 999,
        "REV_AT_EPOCH": 97081,
        "BSTAR": -1.0601543e-05,
        "MEAN_MOTION_DOT": -6.8e-07,
        "MEAN_MOTION_DDOT": 0
    },
    {
        "OBJECT_NAME": "KORONAS-FOTON",
        "OBJECT_ID": "2009-003A",
        "EPOCH": "2026-04-17T01:40:45.284448",
        "MEAN_MOTION": 15.4437499,
        "ECCENTRICITY": 0.00105815,
        "INCLINATION": 82.4302,
        "RA_OF_ASC_NODE": 235.9406,
        "ARG_OF_PERICENTER": 23.0595,
        "MEAN_ANOMALY": 337.1126,
        "EPHEMERIS_TYPE": 0,
        "CLASSIFICATION_TYPE": "U",
        "NORAD_CAT_ID": 33504,
        "ELEMENT_SET_NO": 999,
        "REV_AT_EPOCH": 95166,
        "BSTAR": 0.0001865373,
        "MEAN_MOTION_DOT": 8.663e-05,
        "MEAN_MOTION_DDOT": 0
    },
    {
        "OBJECT_NAME": "CZ-2C R/B",
        "OBJECT_ID": "2011-030B",
        "EPOCH": "2026-04-16T15:55:39.036864",
        "MEAN_MOTION": 14.81340802,
        "ECCENTRICITY": 0.00513035,
        "INCLINATION": 97.8606,
        "RA_OF_ASC_NODE": 63.1869,
        "ARG_OF_PERICENTER": 225.6863,
        "MEAN_ANOMALY": 307.7402,
        "EPHEMERIS_TYPE": 0,
        "CLASSIFICATION_TYPE": "U",
        "NORAD_CAT_ID": 37731,
        "ELEMENT_SET_NO": 999,
        "REV_AT_EPOCH": 79571,
        "BSTAR": 7.3042071e-05,
        "MEAN_MOTION_DOT": 5.28e-06,
        "MEAN_MOTION_DDOT": 0
    }
]