{"fetched_at":"2026-04-18T08:45:53Z","count":1271,"tles":[{"name":"COSMOS 2428","line1":"1 31792U 07029A   26107.11797193 -.00000147  00000+0 -53031-4 0  9993","line2":"2 31792  70.9397 122.6861 0009450 235.8450 124.1776 14.12947752969521","category":"Other"},{"name":"COSMO-SKYMED 1","line1":"1 31598U 07023A   26107.30712810  .00001188  00000+0  10900-3 0  9996","line2":"2 31598  97.8876 298.6573 0001267  86.3721 273.7645 14.96804940 20681","category":"Other"},{"name":"RESURS-DK 1","line1":"1 29228U 06021A   26107.14879394  .00001230  00000+0  75732-4 0  9996","line2":"2 29228  69.9296 137.5254 0002558   0.2044 359.9122 15.12953661 93342","category":"Other"},{"name":"KORONAS-FOTON","line1":"1 33504U 09003A   26107.06996857  .00008663  00000+0  18654-3 0  9992","line2":"2 33504  82.4302 235.9406 0010581  23.0595 337.1126 15.44374990951660","category":"Other"},{"name":"CZ-2D R/B","line1":"1 28738U 05024B   26107.01996096  .00033086  00000+0  35587-3 0  9995","line2":"2 28738  97.3544 123.6707 0003359 198.1910 161.9230 15.63673819145761","category":"Other"},{"name":"CZ-4B R/B","line1":"1 29507U 06046C   26107.12819025  .00002972  00000+0  15049-3 0  9994","line2":"2 29507  97.5518 151.9276 0034317 132.6543 227.7592 15.17284280 65871","category":"Other"},{"name":"ARIANE 5 R/B","line1":"1 28499U 04049H   26106.89710630  .00000558  00000+0  68186-4 0  9998","line2":"2 28499  98.2680 276.7993 0083169 226.6593 132.7670 14.85338781151461","category":"Other"},{"name":"ALOS (DAICHI)","line1":"1 28931U 06002A   26107.30513893  .00000702  00000+0  12549-3 0  9991","line2":"2 28931  98.1279  63.0863 0001633 111.7420 248.3959 14.69922442 79151","category":"Other"},{"name":"CZ-2C R/B","line1":"1 37731U 11030B   26106.66364626  .00000528  00000+0  73042-4 0  9994","line2":"2 37731  97.8606  63.1869 0051303 225.6863 307.7402 14.81340802795719","category":"Other"},{"name":"SL-16 R/B","line1":"1 31793U 07029B   26107.16928104 -.00000068  00000+0 -10602-4 0  9996","line2":"2 31793  70.9730  91.4957 0002688 271.1064 166.3268 14.14841295970817","category":"Other"},{"name":"H-2A R/B","line1":"1 28932U 06002B   26106.67233212  .00005309  00000+0  26141-3 0  9996","line2":"2 28932  98.2484 257.0047 0052656 112.2484 248.4343 15.17253084100197","category":"Other"},{"name":"CZ-2C R/B","line1":"1 31114U 07010B   26107.26217398  .00000074  00000+0  52616-4 0  9996","line2":"2 31114  98.4023 218.6156 0059061 180.9294 179.1783 14.20260180985193","category":"Other"}]}